start=new Date('2022-07-16T00:00:00.000Z').valueOf();
sats=[{"INCLINATION":"53.2174","FILE":"3514671","OBJECT_TYPE":"PAYLOAD","PERIAPSIS":"538.783","DECAY_DATE":null,"EPOCH":"2022-07-15T19:36:48.867264","SEMIMAJOR_AXIS":"6917.876","LAUNCH_DATE":"2021-12-02","REV_AT_EPOCH":"3528","OBJECT_ID":"2021-115E","MEAN_MOTION_DOT":"0.00001678","TIME_SYSTEM":"UTC","MEAN_MOTION_DDOT":"0.0000000000000","PERIOD":"95.437","SITE":"AFETR","ELEMENT_SET_NO":"999","ARG_OF_PERICENTER":"61.0897","RCS_SIZE":"LARGE","TLE_LINE2":"2 49728  53.2174  22.6221 0001385  61.0897 299.0234 15.08841363 35283","TLE_LINE1":"1 49728U 21115E   22196.81723226  .00001678  00000-0  12350-3 0  9997","EPHEMERIS_TYPE":"0","MEAN_ANOMALY":"299.0234","CLASSIFICATION_TYPE":"U","REF_FRAME":"TEME","MEAN_MOTION":"15.08841363","BSTAR":"0.00012350000000","NORAD_CAT_ID":"49728","MEAN_ELEMENT_THEORY":"SGP4","COUNTRY_CODE":"US","APOAPSIS":"540.699","CENTER_NAME":"EARTH","ECCENTRICITY":"0.00013850","OBJECT_NAME":"STARLINK-3240","GP_ID":"208176841","RA_OF_ASC_NODE":"22.6221"},{"EPOCH":"2022-07-15T19:42:07.337664","SEMIMAJOR_AXIS":"6917.896","DECAY_DATE":null,"PERIAPSIS":"538.545","OBJECT_TYPE":"PAYLOAD","INCLINATION":"53.2176","FILE":"3514839","SITE":"AFETR","ELEMENT_SET_NO":"999","ARG_OF_PERICENTER":"87.5710","PERIOD":"95.438","TIME_SYSTEM":"UTC","MEAN_MOTION_DDOT":"0.0000000000000","OBJECT_ID":"2021-115F","MEAN_MOTION_DOT":"0.00002625","LAUNCH_DATE":"2021-12-02","REV_AT_EPOCH":"3417","REF_FRAME":"TEME","MEAN_MOTION":"15.08834972","CLASSIFICATION_TYPE":"U","MEAN_ANOMALY":"272.5483","TLE_LINE1":"1 49729U 21115F   22196.82091826  .00002625  00000-0  18300-3 0  9997","EPHEMERIS_TYPE":"0","TLE_LINE2":"2 49729  53.2176  22.6113 0001758  87.5710 272.5483 15.08834972 34174","RCS_SIZE":"LARGE","RA_OF_ASC_NODE":"22.6113","GP_ID":"208205143","OBJECT_NAME":"STARLINK-3251","ECCENTRICITY":"0.00017580","CENTER_NAME":"EARTH","COUNTRY_CODE":"US","MEAN_ELEMENT_THEORY":"SGP4","APOAPSIS":"540.977","NORAD_CAT_ID":"49729","BSTAR":"0.00018300000000"},{"INCLINATION":"53.2173","FILE":"3514839","DECAY_DATE":null,"OBJECT_TYPE":"PAYLOAD","PERIAPSIS":"538.684","SEMIMAJOR_AXIS":"6917.872","EPOCH":"2022-07-15T19:52:42.282624","REV_AT_EPOCH":"3417","LAUNCH_DATE":"2021-12-02","MEAN_MOTION_DDOT":"0.0000000000000","TIME_SYSTEM":"UTC","MEAN_MOTION_DOT":"0.00004614","OBJECT_ID":"2021-115G","ARG_OF_PERICENTER":"75.4355","ELEMENT_SET_NO":"999","SITE":"AFETR","PERIOD":"95.437","TLE_LINE2":"2 49730  53.2173  22.5641 0001523  75.4355 284.6806 15.08842680 34177","RCS_SIZE":"LARGE","MEAN_ANOMALY":"284.6806","TLE_LINE1":"1 49730U 21115G   22196.82826716  .00004614  00000-0  30780-3 0  9999","EPHEMERIS_TYPE":"0","MEAN_MOTION":"15.08842680","REF_FRAME":"TEME","CLASSIFICATION_TYPE":"U","NORAD_CAT_ID":"49730","BSTAR":"0.00030780000000","CENTER_NAME":"EARTH","ECCENTRICITY":"0.00015230","APOAPSIS":"540.791","COUNTRY_CODE":"US","MEAN_ELEMENT_THEORY":"SGP4","RA_OF_ASC_NODE":"22.5641","GP_ID":"208203891","OBJECT_NAME":"STARLINK-3249"},{"MEAN_MOTION_DDOT":"0.0000000000000","TIME_SYSTEM":"UTC","MEAN_MOTION_DOT":"0.00006581","OBJECT_ID":"2021-115H","REV_AT_EPOCH":"3418","LAUNCH_DATE":"2021-12-02","ARG_OF_PERICENTER":"71.4628","ELEMENT_SET_NO":"999","SITE":"AFETR","PERIOD":"95.437","DECAY_DATE":null,"OBJECT_TYPE":"PAYLOAD","PERIAPSIS":"538.459","FILE":"3514839","INCLINATION":"53.2158","SEMIMAJOR_AXIS":"6917.873","EPOCH":"2022-07-15T21:22:48.433440","NORAD_CAT_ID":"49731","BSTAR":"0.00043119000000","RA_OF_ASC_NODE":"22.2904","GP_ID":"208204141","OBJECT_NAME":"STARLINK-3228","CENTER_NAME":"EARTH","ECCENTRICITY":"0.00018490","APOAPSIS":"541.017","COUNTRY_CODE":"US","MEAN_ELEMENT_THEORY":"SGP4","TLE_LINE2":"2 49731  53.2158  22.2904 0001849  71.4628 288.6565 15.08842327 34185","RCS_SIZE":"LARGE","MEAN_MOTION":"15.08842327","REF_FRAME":"TEME","CLASSIFICATION_TYPE":"U","MEAN_ANOMALY":"288.6565","TLE_LINE1":"1 49731U 21115H   22196.89083835  .00006581  00000-0  43119-3 0  9999","EPHEMERIS_TYPE":"0"},{"SEMIMAJOR_AXIS":"6917.882","EPOCH":"2022-07-15T20:08:36.921408","INCLINATION":"53.2167","FILE":"3514839","DECAY_DATE":null,"PERIAPSIS":"538.660","OBJECT_TYPE":"PAYLOAD","ELEMENT_SET_NO":"999","ARG_OF_PERICENTER":"63.6192","SITE":"AFETR","PERIOD":"95.438","REV_AT_EPOCH":"3417","LAUNCH_DATE":"2021-12-02","MEAN_MOTION_DDOT":"0.0000000000000","TIME_SYSTEM":"UTC","MEAN_MOTION_DOT":"0.00002611","OBJECT_ID":"2021-115J","MEAN_ANOMALY":"296.4961","TLE_LINE1":"1 49732U 21115J   22196.83931622  .00002611  00000-0  18211-3 0  9995","EPHEMERIS_TYPE":"0","MEAN_MOTION":"15.08839441","REF_FRAME":"TEME","CLASSIFICATION_TYPE":"U","TLE_LINE2":"2 49732  53.2167  22.5127 0001572  63.6192 296.4961 15.08839441 34177","RCS_SIZE":"LARGE","CENTER_NAME":"EARTH","ECCENTRICITY":"0.00015720","APOAPSIS":"540.835","COUNTRY_CODE":"US","MEAN_ELEMENT_THEORY":"SGP4","RA_OF_ASC_NODE":"22.5127","OBJECT_NAME":"STARLINK-3246","GP_ID":"208204392","NORAD_CAT_ID":"49732","BSTAR":"0.00018211000000"},{"PERIOD":"95.438","ELEMENT_SET_NO":"999","ARG_OF_PERICENTER":"77.5741","SITE":"AFETR","REV_AT_EPOCH":"3417","LAUNCH_DATE":"2021-12-02","MEAN_MOTION_DOT":"0.00001522","OBJECT_ID":"2021-115K","MEAN_MOTION_DDOT":"0.0000000000000","TIME_SYSTEM":"UTC","SEMIMAJOR_AXIS":"6917.918","EPOCH":"2022-07-15T19:58:01.214400","INCLINATION":"53.2180","FILE":"3514839","PERIAPSIS":"538.721","OBJECT_TYPE":"PAYLOAD","DECAY_DATE":null,"APOAPSIS":"540.845","MEAN_ELEMENT_THEORY":"SGP4","COUNTRY_CODE":"US","ECCENTRICITY":"0.00015350","CENTER_NAME":"EARTH","GP_ID":"208204643","OBJECT_NAME":"STARLINK-3252","RA_OF_ASC_NODE":"22.5488","BSTAR":"0.00011372000000","NORAD_CAT_ID":"49733","TLE_LINE1":"1 49733U 21115K   22196.83195850  .00001522  00000-0  11372-3 0  9992","EPHEMERIS_TYPE":"0","MEAN_ANOMALY":"282.5423","CLASSIFICATION_TYPE":"U","MEAN_MOTION":"15.08827786","REF_FRAME":"TEME","RCS_SIZE":"LARGE","TLE_LINE2":"2 49733  53.2180  22.5488 0001535  77.5741 282.5423 15.08827786 34174"},{"EPOCH":"2022-07-15T18:50:27.233088","SEMIMAJOR_AXIS":"6917.910","OBJECT_TYPE":"PAYLOAD","PERIAPSIS":"538.798","DECAY_DATE":null,"FILE":"3514839","INCLINATION":"53.2200","PERIOD":"95.438","SITE":"AFETR","ELEMENT_SET_NO":"999","ARG_OF_PERICENTER":"72.0930","OBJECT_ID":"2021-115L","MEAN_MOTION_DOT":"-0.00000246","TIME_SYSTEM":"UTC","MEAN_MOTION_DDOT":"0.0000000000000","LAUNCH_DATE":"2021-12-02","REV_AT_EPOCH":"3431","CLASSIFICATION_TYPE":"U","REF_FRAME":"TEME","MEAN_MOTION":"15.08830353","EPHEMERIS_TYPE":"0","TLE_LINE1":"1 49734U 21115L   22196.78503742 -.00000246  00000-0  26108-5 0  9998","MEAN_ANOMALY":"288.0216","RCS_SIZE":"LARGE","TLE_LINE2":"2 49734  53.2200  12.7702 0001412  72.0930 288.0216 15.08830353 34313","OBJECT_NAME":"STARLINK-3238","GP_ID":"208203391","RA_OF_ASC_NODE":"12.7702","COUNTRY_CODE":"US","MEAN_ELEMENT_THEORY":"SGP4","APOAPSIS":"540.752","CENTER_NAME":"EARTH","ECCENTRICITY":"0.00014120","BSTAR":"0.00000261080000","NORAD_CAT_ID":"49734"},{"CENTER_NAME":"EARTH","ECCENTRICITY":"0.00016510","MEAN_ELEMENT_THEORY":"SGP4","COUNTRY_CODE":"US","APOAPSIS":"540.878","RA_OF_ASC_NODE":"22.5286","GP_ID":"208203641","OBJECT_NAME":"STARLINK-3113","NORAD_CAT_ID":"49735","BSTAR":"0.00026897000000","MEAN_ANOMALY":"288.9018","TLE_LINE1":"1 49735U 21115M   22196.83563725  .00003996  00000-0  26897-3 0  9999","EPHEMERIS_TYPE":"0","REF_FRAME":"TEME","MEAN_MOTION":"15.08843033","CLASSIFICATION_TYPE":"U","TLE_LINE2":"2 49735  53.2169  22.5286 0001651  71.2153 288.9018 15.08843033 34179","RCS_SIZE":"LARGE","SITE":"AFETR","ELEMENT_SET_NO":"999","ARG_OF_PERICENTER":"71.2153","PERIOD":"95.437","LAUNCH_DATE":"2021-12-02","REV_AT_EPOCH":"3417","TIME_SYSTEM":"UTC","MEAN_MOTION_DDOT":"0.0000000000000","OBJECT_ID":"2021-115M","MEAN_MOTION_DOT":"0.00003996","EPOCH":"2022-07-15T20:03:19.058400","SEMIMAJOR_AXIS":"6917.871","INCLINATION":"53.2169","FILE":"3514839","DECAY_DATE":null,"PERIAPSIS":"538.594","OBJECT_TYPE":"PAYLOAD"},{"MEAN_MOTION_DDOT":"0.0000000000000","TIME_SYSTEM":"UTC","MEAN_MOTION_DOT":"0.00001322","OBJECT_ID":"2021-115N","REV_AT_EPOCH":"3431","LAUNCH_DATE":"2021-12-02","ELEMENT_SET_NO":"999","ARG_OF_PERICENTER":"69.1232","SITE":"AFETR","PERIOD":"95.438","DECAY_DATE":null,"OBJECT_TYPE":"PAYLOAD","PERIAPSIS":"538.652","INCLINATION":"53.2192","FILE":"3514839","SEMIMAJOR_AXIS":"6917.887","EPOCH":"2022-07-15T19:01:02.786304","NORAD_CAT_ID":"49736","BSTAR":"0.00010112000000","RA_OF_ASC_NODE":"12.7330","GP_ID":"208204893","OBJECT_NAME":"STARLINK-3148","ECCENTRICITY":"0.00015910","CENTER_NAME":"EARTH","APOAPSIS":"540.853","MEAN_ELEMENT_THEORY":"SGP4","COUNTRY_CODE":"US","TLE_LINE2":"2 49736  53.2192  12.7330 0001591  69.1232 290.9930 15.08837791 34310","RCS_SIZE":"LARGE","MEAN_MOTION":"15.08837791","REF_FRAME":"TEME","CLASSIFICATION_TYPE":"U","MEAN_ANOMALY":"290.9930","TLE_LINE1":"1 49736U 21115N   22196.79239336  .00001322  00000-0  10112-3 0  9997","EPHEMERIS_TYPE":"0"},{"CENTER_NAME":"EARTH","ECCENTRICITY":"0.00014950","MEAN_ELEMENT_THEORY":"SGP4","COUNTRY_CODE":"US","APOAPSIS":"540.797","RA_OF_ASC_NODE":"12.4577","OBJECT_NAME":"STARLINK-3225","GP_ID":"208205144","NORAD_CAT_ID":"49737","BSTAR":"0.00006605900000","MEAN_ANOMALY":"291.4430","EPHEMERIS_TYPE":"0","TLE_LINE1":"1 49737U 21115P   22196.85495824  .00000763  00000-0  66059-4 0  9991","REF_FRAME":"TEME","MEAN_MOTION":"15.08834358","CLASSIFICATION_TYPE":"U","TLE_LINE2":"2 49737  53.2197  12.4577 0001495  68.6721 291.4430 15.08834358 34324","RCS_SIZE":"LARGE","SITE":"AFETR","ELEMENT_SET_NO":"999","ARG_OF_PERICENTER":"68.6721","PERIOD":"95.438","LAUNCH_DATE":"2021-12-02","REV_AT_EPOCH":"3432","TIME_SYSTEM":"UTC","MEAN_MOTION_DDOT":"0.0000000000000","OBJECT_ID":"2021-115P","MEAN_MOTION_DOT":"0.00000763","EPOCH":"2022-07-15T20:31:08.391936","SEMIMAJOR_AXIS":"6917.898","INCLINATION":"53.2197","FILE":"3514839","DECAY_DATE":null,"PERIAPSIS":"538.728","OBJECT_TYPE":"PAYLOAD"}];
